ONEWEB-0160             
1 48060U 21025U   23266.21294506  .00000047  00000+0  94362-4 0  9994
2 48060  87.9067 158.7883 0002518  94.6051 265.5366 13.13472065122558
ONEWEB-0163             
1 48061U 21025V   23266.19813292 -.00000232  00000+0 -66980-3 0  9993
2 48061  87.9076 158.7815 0001648  62.8031 297.3266 13.13472752122670
ONEWEB-0159             
1 48062U 21025W   23266.79698267  .00000019  00000+0  15896-4 0  9995
2 48062  87.9000 158.6645 0001514  77.8569 282.2730 13.13468276122677
ONEWEB-0164             
1 48063U 21025X   23266.77792646  .00000398  00000+0  10536-2 0  9994
2 48063  87.9076 158.6614 0001957  73.1340 287.0004 13.13469246122668
ONEWEB-0167             
1 48064U 21025Y   23266.27535623 -.00000259  00000+0 -74399-3 0  9996
2 48064  87.9075 158.7701 0001718  67.5924 292.5387 13.13473315122573
ONEWEB-0166             
1 48065U 21025Z   23266.22141863  .00000262  00000+0  68372-3 0  9997
2 48065  87.9070 158.7749 0001566  74.7417 285.3885 13.13470620122646
ONEWEB-0151             
1 48066U 21025AA  23266.22352731  .00000504  00000+0  13446-2 0  9996
2 48066  87.9072 158.7815 0002333  73.2728 286.8657 13.13468802122580
ONEWEB-0170             
1 48067U 21025AB  23266.22987318  .00000347  00000+0  91548-3 0  9997
2 48067  87.9074 158.7798 0002523  77.9195 282.2217 13.13469088122548
